{
  "type": "FeatureCollection",
  "features": [
    {
      "type": "Feature",
      "properties": {
        "norad_id": 58655,
        "name": "BEIDOU-3 M26 (C48)",
        "group": "beidou",
        "lat": -3.1860070234242714,
        "lon": -109.60280897602641,
        "alt_km": 21526.017880266238,
        "timestamp": "2025-12-24T07:45:06.465389+00:00",
        "meta_object_name": "BEIDOU-3 M26 (C48)",
        "meta_object_id": "2023-207B",
        "meta_epoch": "2025-12-22T23:23:41.171712",
        "meta_mean_motion": 1.86231234,
        "meta_eccentricity": 0.00041871,
        "meta_inclination": 55.5951,
        "meta_ra_of_asc_node": 68.241,
        "meta_arg_of_pericenter": 260.4893,
        "meta_mean_anomaly": 99.5155,
        "meta_ephemeris_type": 0,
        "meta_classification_type": "U",
        "meta_norad_cat_id": 58655,
        "meta_element_set_no": 999,
        "meta_rev_at_epoch": 1354,
        "meta_bstar": 0,
        "meta_mean_motion_dot": -2.8e-07,
        "meta_mean_motion_ddot": 0,
        "tle_line1": "1 58655U 23207B   25356.97478208 -.00000028  00000+0  00000+0 0  9998",
        "tle_line2": "2 58655  55.5951  68.2410 0004187 260.4893  99.5155  1.86231234 13541"
      },
      "geometry": {
        "type": "Point",
        "coordinates": [
          -109.60280897602641,
          -3.1860070234242714
        ]
      }
    },
    {
      "type": "Feature",
      "properties": {
        "norad_id": 61186,
        "name": "BEIDOU-3 M25 (C47)",
        "group": "beidou",
        "lat": -44.47655393154424,
        "lon": -95.8602395266044,
        "alt_km": 21518.07444162197,
        "timestamp": "2025-12-24T07:45:06.465400+00:00",
        "meta_object_name": "BEIDOU-3 M25 (C47)",
        "meta_object_id": "2024-168B",
        "meta_epoch": "2025-12-23T15:27:08.107776",
        "meta_mean_motion": 1.86230111,
        "meta_eccentricity": 0.00054346,
        "meta_inclination": 54.6324,
        "meta_ra_of_asc_node": 308.3432,
        "meta_arg_of_pericenter": 299.8932,
        "meta_mean_anomaly": 265.5562,
        "meta_ephemeris_type": 0,
        "meta_classification_type": "U",
        "meta_norad_cat_id": 61186,
        "meta_element_set_no": 999,
        "meta_rev_at_epoch": 851,
        "meta_bstar": 0,
        "meta_mean_motion_dot": -5.4e-07,
        "meta_mean_motion_ddot": 0,
        "tle_line1": "1 61186U 24168B   25357.64384384 -.00000054  00000+0  00000+0 0  9993",
        "tle_line2": "2 61186  54.6324 308.3432 0005434 299.8932 265.5562  1.86230111  8517"
      },
      "geometry": {
        "type": "Point",
        "coordinates": [
          -95.8602395266044,
          -44.47655393154424
        ]
      }
    },
    {
      "type": "Feature",
      "properties": {
        "norad_id": 61187,
        "name": "BEIDOU-3 M27 (C49)",
        "group": "beidou",
        "lat": 52.23304684888908,
        "lon": 14.62726460802066,
        "alt_km": 21522.611777417453,
        "timestamp": "2025-12-24T07:45:06.465411+00:00",
        "meta_object_name": "BEIDOU-3 M27 (C49)",
        "meta_object_id": "2024-168C",
        "meta_epoch": "2025-12-23T10:00:54.789120",
        "meta_mean_motion": 1.86230279,
        "meta_eccentricity": 0.00025534,
        "meta_inclination": 54.6281,
        "meta_ra_of_asc_node": 308.3346,
        "meta_arg_of_pericenter": 340.8055,
        "meta_mean_anomaly": 207.7074,
        "meta_ephemeris_type": 0,
        "meta_classification_type": "U",
        "meta_norad_cat_id": 61187,
        "meta_element_set_no": 999,
        "meta_rev_at_epoch": 598,
        "meta_bstar": 0,
        "meta_mean_motion_dot": -5.4e-07,
        "meta_mean_motion_ddot": 0,
        "tle_line1": "1 61187U 24168C   25357.41730080 -.00000054  00000+0  00000+0 0  9997",
        "tle_line2": "2 61187  54.6281 308.3346 0002553 340.8055 207.7074  1.86230279  5985"
      },
      "geometry": {
        "type": "Point",
        "coordinates": [
          14.62726460802066,
          52.23304684888908
        ]
      }
    }
  ]
}